start=new Date('2023-02-22T00:00:00.000Z').valueOf();
sats=[{"EPOCH":"2023-02-21T21:53:04.897536","RA_OF_ASC_NODE":"272.5865","INCLINATION":"53.0511","COUNTRY_CODE":"US","EPHEMERIS_TYPE":"0","MEAN_ELEMENT_THEORY":"SGP4","ELEMENT_SET_NO":"999","LAUNCH_DATE":"2020-10-24","SITE":"AFETR","CENTER_NAME":"EARTH","NORAD_CAT_ID":"46751","OBJECT_TYPE":"PAYLOAD","MEAN_MOTION_DDOT":"0.0000000000000","REV_AT_EPOCH":"12910","RCS_SIZE":"LARGE","PERIOD":"95.592","ARG_OF_PERICENTER":"73.9576","MEAN_MOTION":"15.06405156","TLE_LINE2":"2 46751  53.0511 272.5865 0001289  73.9576 286.1555 15.06405156129100","MEAN_MOTION_DOT":"0.00017228","GP_ID":"226327837","TLE_LINE1":"1 46751U 20074N   23052.91186224  .00017228  00000-0  11725-2 0  9999","DECAY_DATE":null,"PERIAPSIS":"546.305","APOAPSIS":"548.090","REF_FRAME":"TEME","TIME_SYSTEM":"UTC","ECCENTRICITY":"0.00012890","OBJECT_ID":"2020-074N","SEMIMAJOR_AXIS":"6925.333","BSTAR":"0.00117250000000","OBJECT_NAME":"STARLINK-1920","FILE":"3821329","MEAN_ANOMALY":"286.1555","CLASSIFICATION_TYPE":"U"},{"RA_OF_ASC_NODE":"272.8341","EPOCH":"2023-02-21T20:33:28.296000","INCLINATION":"53.0508","COUNTRY_CODE":"US","MEAN_ELEMENT_THEORY":"SGP4","EPHEMERIS_TYPE":"0","ELEMENT_SET_NO":"999","LAUNCH_DATE":"2020-10-24","CENTER_NAME":"EARTH","SITE":"AFETR","OBJECT_TYPE":"PAYLOAD","NORAD_CAT_ID":"46752","REV_AT_EPOCH":"12909","MEAN_MOTION_DDOT":"0.0000000000000","PERIOD":"95.592","RCS_SIZE":"LARGE","TLE_LINE2":"2 46752  53.0508 272.8341 0001253  80.2849 279.8281 15.06397043129092","ARG_OF_PERICENTER":"80.2849","MEAN_MOTION":"15.06397043","TLE_LINE1":"1 46752U 20074P   23052.85657750  .00018650  00000-0  12677-2 0  9997","MEAN_MOTION_DOT":"0.00018650","GP_ID":"226328087","TIME_SYSTEM":"UTC","DECAY_DATE":null,"PERIAPSIS":"546.355","REF_FRAME":"TEME","APOAPSIS":"548.090","OBJECT_ID":"2020-074P","ECCENTRICITY":"0.00012530","MEAN_ANOMALY":"279.8281","FILE":"3821329","SEMIMAJOR_AXIS":"6925.358","BSTAR":"0.00126770000000","OBJECT_NAME":"STARLINK-1921","CLASSIFICATION_TYPE":"U"},{"EPOCH":"2023-02-21T21:21:14.121792","RA_OF_ASC_NODE":"272.6855","INCLINATION":"53.0512","COUNTRY_CODE":"US","EPHEMERIS_TYPE":"0","MEAN_ELEMENT_THEORY":"SGP4","ELEMENT_SET_NO":"999","LAUNCH_DATE":"2020-10-24","SITE":"AFETR","CENTER_NAME":"EARTH","NORAD_CAT_ID":"46753","OBJECT_TYPE":"PAYLOAD","MEAN_MOTION_DDOT":"0.0000000000000","REV_AT_EPOCH":"12910","RCS_SIZE":"LARGE","PERIOD":"95.591","ARG_OF_PERICENTER":"85.7758","MEAN_MOTION":"15.06419433","TLE_LINE2":"2 46753  53.0512 272.6855 0001083  85.7758 274.3355 15.06419433129108","MEAN_MOTION_DOT":"0.00008720","GP_ID":"226328837","TLE_LINE1":"1 46753U 20074Q   23052.88974678  .00008720  00000-0  60324-3 0  9992","DECAY_DATE":null,"PERIAPSIS":"546.404","REF_FRAME":"TEME","APOAPSIS":"547.904","TIME_SYSTEM":"UTC","ECCENTRICITY":"0.00010830","OBJECT_ID":"2020-074Q","SEMIMAJOR_AXIS":"6925.289","BSTAR":"0.00060324000000","OBJECT_NAME":"STARLINK-1922","FILE":"3821329","MEAN_ANOMALY":"274.3355","CLASSIFICATION_TYPE":"U"},{"CLASSIFICATION_TYPE":"U","MEAN_ANOMALY":"279.3860","FILE":"3821329","SEMIMAJOR_AXIS":"6925.319","OBJECT_NAME":"STARLINK-1923","BSTAR":"0.00118520000000","OBJECT_ID":"2020-074R","ECCENTRICITY":"0.00010020","TIME_SYSTEM":"UTC","DECAY_DATE":null,"APOAPSIS":"547.878","PERIAPSIS":"546.490","REF_FRAME":"TEME","TLE_LINE1":"1 46754U 20074R   23052.89711814  .00017421  00000-0  11852-2 0  9994","MEAN_MOTION_DOT":"0.00017421","GP_ID":"226329587","TLE_LINE2":"2 46754  53.0521 272.6510 0001002  80.7242 279.3860 15.06409550129106","ARG_OF_PERICENTER":"80.7242","MEAN_MOTION":"15.06409550","PERIOD":"95.592","RCS_SIZE":"LARGE","REV_AT_EPOCH":"12910","MEAN_MOTION_DDOT":"0.0000000000000","OBJECT_TYPE":"PAYLOAD","NORAD_CAT_ID":"46754","CENTER_NAME":"EARTH","SITE":"AFETR","ELEMENT_SET_NO":"999","LAUNCH_DATE":"2020-10-24","MEAN_ELEMENT_THEORY":"SGP4","EPHEMERIS_TYPE":"0","COUNTRY_CODE":"US","INCLINATION":"53.0521","RA_OF_ASC_NODE":"272.6510","EPOCH":"2023-02-21T21:31:51.007296"},{"GP_ID":"226328337","MEAN_MOTION_DOT":"0.00020903","TLE_LINE1":"1 46755U 20074S   23052.90218823  .00020903  00000-0  14162-2 0  9995","REF_FRAME":"TEME","PERIAPSIS":"546.150","APOAPSIS":"547.982","DECAY_DATE":null,"TIME_SYSTEM":"UTC","RCS_SIZE":"LARGE","PERIOD":"95.589","MEAN_MOTION":"15.06448119","ARG_OF_PERICENTER":"86.1937","TLE_LINE2":"2 46755  53.0525 277.6272 0001323  86.1937 273.9203 15.06448119129035","BSTAR":"0.00141620000000","OBJECT_NAME":"STARLINK-1924","SEMIMAJOR_AXIS":"6925.201","FILE":"3821329","MEAN_ANOMALY":"273.9203","CLASSIFICATION_TYPE":"U","ECCENTRICITY":"0.00013230","OBJECT_ID":"2020-074S","COUNTRY_CODE":"US","EPHEMERIS_TYPE":"0","MEAN_ELEMENT_THEORY":"SGP4","EPOCH":"2023-02-21T21:39:09.063072","RA_OF_ASC_NODE":"277.6272","INCLINATION":"53.0525","NORAD_CAT_ID":"46755","OBJECT_TYPE":"PAYLOAD","MEAN_MOTION_DDOT":"0.0000000000000","REV_AT_EPOCH":"12903","LAUNCH_DATE":"2020-10-24","ELEMENT_SET_NO":"999","SITE":"AFETR","CENTER_NAME":"EARTH"},{"CENTER_NAME":"EARTH","SITE":"AFETR","ELEMENT_SET_NO":"999","LAUNCH_DATE":"2020-10-24","REV_AT_EPOCH":"12902","MEAN_MOTION_DDOT":"0.0000000000000","OBJECT_TYPE":"PAYLOAD","NORAD_CAT_ID":"46756","INCLINATION":"53.0532","RA_OF_ASC_NODE":"278.1858","EPOCH":"2023-02-21T20:46:08.678208","MEAN_ELEMENT_THEORY":"SGP4","EPHEMERIS_TYPE":"0","COUNTRY_CODE":"US","OBJECT_ID":"2020-074T","ECCENTRICITY":"0.00012150","CLASSIFICATION_TYPE":"U","MEAN_ANOMALY":"253.6491","FILE":"3821329","SEMIMAJOR_AXIS":"6925.239","BSTAR":"0.00071988000000","OBJECT_NAME":"STARLINK-1925","TLE_LINE2":"2 46756  53.0532 278.1858 0001215 106.4631 253.6491 15.06435633129027","ARG_OF_PERICENTER":"106.4631","MEAN_MOTION":"15.06435633","PERIOD":"95.590","RCS_SIZE":"LARGE","TIME_SYSTEM":"UTC","DECAY_DATE":null,"PERIAPSIS":"546.263","REF_FRAME":"TEME","APOAPSIS":"547.946","TLE_LINE1":"1 46756U 20074T   23052.86537822  .00010468  00000-0  71988-3 0  9999","MEAN_MOTION_DOT":"0.00010468","GP_ID":"226328587"},{"MEAN_MOTION_DOT":"0.00021754","GP_ID":"226329337","TLE_LINE1":"1 46757U 20074U   23052.88010240  .00021754  00000-0  14735-2 0  9998","DECAY_DATE":null,"PERIAPSIS":"546.103","REF_FRAME":"TEME","APOAPSIS":"548.117","TIME_SYSTEM":"UTC","RCS_SIZE":"LARGE","PERIOD":"95.590","ARG_OF_PERICENTER":"83.8806","MEAN_MOTION":"15.06433769","TLE_LINE2":"2 46757  53.0529 277.9657 0001454  83.8806 276.2348 15.06433769129025","SEMIMAJOR_AXIS":"6925.245","BSTAR":"0.00147350000000","OBJECT_NAME":"STARLINK-1926","FILE":"3821329","MEAN_ANOMALY":"276.2348","CLASSIFICATION_TYPE":"U","ECCENTRICITY":"0.00014540","OBJECT_ID":"2020-074U","COUNTRY_CODE":"US","EPHEMERIS_TYPE":"0","MEAN_ELEMENT_THEORY":"SGP4","EPOCH":"2023-02-21T21:07:20.847360","RA_OF_ASC_NODE":"277.9657","INCLINATION":"53.0529","NORAD_CAT_ID":"46757","OBJECT_TYPE":"PAYLOAD","MEAN_MOTION_DDOT":"0.0000000000000","REV_AT_EPOCH":"12902","ELEMENT_SET_NO":"999","LAUNCH_DATE":"2020-10-24","SITE":"AFETR","CENTER_NAME":"EARTH"},{"INCLINATION":"53.0535","EPOCH":"2023-02-21T21:12:36.265248","RA_OF_ASC_NODE":"277.7075","EPHEMERIS_TYPE":"0","MEAN_ELEMENT_THEORY":"SGP4","COUNTRY_CODE":"US","SITE":"AFETR","CENTER_NAME":"EARTH","ELEMENT_SET_NO":"999","LAUNCH_DATE":"2020-10-24","MEAN_MOTION_DDOT":"0.0000000000000","REV_AT_EPOCH":"12903","NORAD_CAT_ID":"46758","OBJECT_TYPE":"PAYLOAD","ARG_OF_PERICENTER":"85.1728","MEAN_MOTION":"15.06409785","TLE_LINE2":"2 46758  53.0535 277.7075 0001501  85.1728 274.9432 15.06409785129037","RCS_SIZE":"LARGE","PERIOD":"95.592","DECAY_DATE":null,"PERIAPSIS":"546.144","REF_FRAME":"TEME","APOAPSIS":"548.223","TIME_SYSTEM":"UTC","MEAN_MOTION_DOT":"0.00020856","GP_ID":"226329088","TLE_LINE1":"1 46758U 20074V   23052.88375307  .00020856  00000-0  14145-2 0  9994","ECCENTRICITY":"0.00015010","OBJECT_ID":"2020-074V","CLASSIFICATION_TYPE":"U","SEMIMAJOR_AXIS":"6925.319","BSTAR":"0.00141450000000","OBJECT_NAME":"STARLINK-1928","FILE":"3821329","MEAN_ANOMALY":"274.9432"},{"FILE":"3821329","MEAN_ANOMALY":"290.5156","SEMIMAJOR_AXIS":"6925.349","BSTAR":"0.00146360000000","OBJECT_NAME":"STARLINK-1833","CLASSIFICATION_TYPE":"U","OBJECT_ID":"2020-074W","ECCENTRICITY":"0.00004100","TLE_LINE1":"1 46759U 20074W   23052.87913193  .00021586  00000-0  14636-2 0  9991","MEAN_MOTION_DOT":"0.00021586","GP_ID":"226327838","TIME_SYSTEM":"UTC","DECAY_DATE":null,"PERIAPSIS":"546.930","APOAPSIS":"547.498","REF_FRAME":"TEME","PERIOD":"95.592","RCS_SIZE":"LARGE","TLE_LINE2":"2 46759  53.0510 287.7360 0000410  69.5877 290.5156 15.06399737128882","ARG_OF_PERICENTER":"69.5877","MEAN_MOTION":"15.06399737","OBJECT_TYPE":"PAYLOAD","NORAD_CAT_ID":"46759","REV_AT_EPOCH":"12888","MEAN_MOTION_DDOT":"0.0000000000000","ELEMENT_SET_NO":"999","LAUNCH_DATE":"2020-10-24","CENTER_NAME":"EARTH","SITE":"AFETR","COUNTRY_CODE":"US","MEAN_ELEMENT_THEORY":"SGP4","EPHEMERIS_TYPE":"0","RA_OF_ASC_NODE":"287.7360","EPOCH":"2023-02-21T21:05:56.998752","INCLINATION":"53.0510"},{"CLASSIFICATION_TYPE":"U","FILE":"3821329","MEAN_ANOMALY":"216.1253","BSTAR":"0.00148400000000","OBJECT_NAME":"STARLINK-1896","SEMIMAJOR_AXIS":"6925.349","OBJECT_ID":"2020-074X","ECCENTRICITY":"0.00010160","TIME_SYSTEM":"UTC","PERIAPSIS":"546.510","REF_FRAME":"TEME","APOAPSIS":"547.918","DECAY_DATE":null,"TLE_LINE1":"1 46760U 20074X   23052.89019459  .00021892  00000-0  14840-2 0  9994","GP_ID":"226328088","MEAN_MOTION_DOT":"0.00021892","TLE_LINE2":"2 46760  53.0492 287.6875 0001016 143.9805 216.1253 15.06399858128891","MEAN_MOTION":"15.06399858","ARG_OF_PERICENTER":"143.9805","PERIOD":"95.592","RCS_SIZE":"LARGE","REV_AT_EPOCH":"12889","MEAN_MOTION_DDOT":"0.0000000000000","OBJECT_TYPE":"PAYLOAD","NORAD_CAT_ID":"46760","CENTER_NAME":"EARTH","SITE":"AFETR","LAUNCH_DATE":"2020-10-24","ELEMENT_SET_NO":"999","MEAN_ELEMENT_THEORY":"SGP4","EPHEMERIS_TYPE":"0","COUNTRY_CODE":"US","INCLINATION":"53.0492","RA_OF_ASC_NODE":"287.6875","EPOCH":"2023-02-21T21:21:52.812576"}];
